ASTROCAST-0402          
1 55109U 23001DE  26068.80661100  .00010930  00000+0  41835-3 0  9996
2 55109  97.5556 160.6821 0004209 216.6984 143.3966 15.26734153129364
STARLINK-30155          
1 57475U 23107U   26068.17935041  .00000391  00000+0  24290-4 0  9996
2 57475  43.0046 338.5844 0002593 269.8096  90.2458 15.26734779145077
